NORAD_CAT_ID,OBJECT_NAME,OBJECT_TYPE,EPOCH,MEAN_MOTION,ECCENTRICITY,INCLINATION,RA_OF_ASC_NODE,ARG_OF_PERICENTER,MEAN_ANOMALY,BSTAR,MEAN_MOTION_DOT,MEAN_MOTION_DDOT,TLE_LINE0,TLE_LINE1,TLE_LINE2,SEMIMAJOR_AXIS,PERIOD,APOGEE,PERIGEE,DECAYED
53604.0,STARLINK-4690,PAYLOAD,2023-07-11 00:03:15,15.08833791,9.79e-05,53.2169,285.59,101.0838,259.0265,0.00014413,2.006e-05,0.0,0 STARLINK-4690,1 53604U 22104S   23192.00226078  .00002006  00000-0  14413-3 0  9993,2 53604  53.2169 285.5900 0000979 101.0838 259.0265 15.08833791 48153,6917.899,95.438,540.442,539.087,0.0
53604.0,STARLINK-4690,PAYLOAD,2023-07-12 04:40:11,15.08844074,0.0001021,53.2168,280.2374,95.4192,264.6916,4.5693e-05,4.4e-06,0.0,0 STARLINK-4690,1 53604U 22104S   23193.19457820  .00000440  00000-0  45693-4 0  9990,2 53604  53.2168 280.2374 0001021  95.4192 264.6916 15.08844074 48338,6917.868,95.437,540.439,539.027,0.0
53604.0,STARLINK-4690,PAYLOAD,2023-07-13 15:38:40,15.08839234,0.0001017,53.2171,273.6965,89.3338,270.7771,4.5761e-05,4.41e-06,0.0,0 STARLINK-4690,1 53604U 22104S   23194.65186138  .00000441  00000-0  45761-4 0  9990,2 53604  53.2171 273.6965 0001017  89.3338 270.7771 15.08839234 48556,6917.883,95.438,540.451,539.044,0.0
53604.0,STARLINK-4690,PAYLOAD,2023-07-14 21:50:59,15.08863991,0.0001067,53.2172,268.0451,97.1545,262.9568,-0.00025315,-4.317e-05,0.0,0 STARLINK-4690,1 53604U 22104S   23195.91041287 -.00004317  00000-0 -25315-3 0  9995,2 53604  53.2172 268.0451 0001067  97.1545 262.9568 15.08863991 48742,6917.807,95.436,540.41,538.934,0.0
53604.0,STARLINK-4690,PAYLOAD,2023-07-15 08:58:42,15.08839995,0.0001044,53.2172,265.964,98.6395,261.4715,0.00014412,2.007e-05,0.0,0 STARLINK-4690,1 53604U 22104S   23196.37410168  .00002007  00000-0  14412-3 0  9992,2 53604  53.2172 265.9640 0001044  98.6395 261.4715 15.08839995 48815,6917.88,95.438,540.468,539.023,0.0
53604.0,STARLINK-4690,PAYLOAD,2023-07-16 04:03:20,15.08834418,0.0001325,53.2169,262.3961,91.1637,268.9507,9.0793e-05,1.157e-05,0.0,0 STARLINK-4690,1 53604U 22104S   23197.16899004  .00001157  00000-0  90793-4 0  9992,2 53604  53.2169 262.3961 0001325  91.1637 268.9507 15.08834418 48936,6917.897,95.438,540.679,538.846,0.0
53604.0,STARLINK-4690,PAYLOAD,2023-07-17 10:15:40,15.08841631,0.0001041,53.2161,256.7465,90.8047,269.3065,0.00014193,1.972e-05,0.0,0 STARLINK-4690,1 53604U 22104S   23198.42754855  .00001972  00000-0  14193-3 0  9990,2 53604  53.2161 256.7465 0001041  90.8047 269.3065 15.08841631 49121,6917.875,95.437,540.461,539.02,0.0
53604.0,STARLINK-4690,PAYLOAD,2023-07-18 10:06:26,15.08857353,8.29e-05,53.2168,252.2867,99.6979,260.4107,0.00049436,7.592e-05,0.0,0 STARLINK-4690,1 53604U 22104S   23199.42114253  .00007592  00000-0  49436-3 0  9995,2 53604  53.2168 252.2867 0000829  99.6979 260.4107 15.08857353 49272,6917.827,95.436,540.266,539.119,0.0
53604.0,STARLINK-4690,PAYLOAD,2023-07-19 09:57:14,15.08838717,0.0001101,53.2157,247.825,100.2486,259.8631,-4.3753e-06,-3.57e-06,0.0,0 STARLINK-4690,1 53604U 22104S   23200.41474958 -.00000357  00000-0 -43753-5 0  9990,2 53604  53.2157 247.8250 0001101 100.2486 259.8631 15.08838717 49426,6917.884,95.438,540.511,538.988,0.0
53604.0,STARLINK-4690,PAYLOAD,2023-07-21 03:17:15,15.08843269,0.0001073,53.2152,240.093,97.07,263.0414,0.00022744,3.334e-05,0.0,0 STARLINK-4690,1 53604U 22104S   23202.13699045  .00003334  00000-0  22744-3 0  9998,2 53604  53.2152 240.0930 0001073  97.0700 263.0414 15.08843269 49683,6917.87,95.437,540.478,538.993,0.0
53604.0,STARLINK-4690,PAYLOAD,2023-07-24 10:46:33,15.08840903,0.0001029,53.215,225.2244,93.8865,266.2245,0.00013653,1.886e-05,0.0,0 STARLINK-4690,1 53604U 22104S   23205.44899526  .00001886  00000-0  13653-3 0  9990,2 53604  53.2150 225.2244 0001029  93.8865 266.2245 15.08840903 50873,6917.878,95.437,540.454,539.031,0.0
53604.0,STARLINK-4690,PAYLOAD,2023-07-25 07:26:34,15.0883955,0.0001178,53.2153,221.3593,80.1082,280.0043,7.0235e-05,8.3e-06,0.0,0 STARLINK-4690,1 53604U 22104S   23206.31011788  .00000830  00000-0  70235-4 0  9991,2 53604  53.2153 221.3593 0001178  80.1082 280.0043 15.08839550 51007,6917.882,95.438,540.562,538.932,0.0
53604.0,STARLINK-4690,PAYLOAD,2023-07-26 00:55:48,15.08843005,0.0001126,53.2157,218.0873,87.8173,272.2948,0.00011689,1.573e-05,0.0,0 STARLINK-4690,1 53604U 22104S   23207.03875478  .00001573  00000-0  11689-3 0  9997,2 53604  53.2157 218.0873 0001126  87.8173 272.2948 15.08843005 51112,6917.871,95.437,540.515,538.957,0.0
53604.0,STARLINK-4690,PAYLOAD,2023-07-26 07:17:20,15.08846244,0.0001126,53.2157,216.8981,85.6931,274.419,0.00013691,1.892e-05,0.0,0 STARLINK-4690,1 53604U 22104S   23207.30371234  .00001892  00000-0  13691-3 0  9997,2 53604  53.2157 216.8981 0001126  85.6931 274.4190 15.08846244 51151,6917.861,95.437,540.505,538.947,0.0
53604.0,STARLINK-4690,PAYLOAD,2023-07-27 00:46:35,15.0884427,0.0001154,53.2158,213.6273,87.8058,272.3066,0.00012199,1.654e-05,0.0,0 STARLINK-4690,1 53604U 22104S   23208.03235252  .00001654  00000-0  12199-3 0  9995,2 53604  53.2158 213.6273 0001154  87.8058 272.3066 15.08844270 50577,6917.867,95.437,540.531,538.934,0.0
53604.0,STARLINK-4690,PAYLOAD,2023-07-27 07:08:07,15.0884584,0.0001188,53.2151,212.4378,88.1434,271.9694,0.00013584,1.875e-05,0.0,0 STARLINK-4690,1 53604U 22104S   23208.29731233  .00001875  00000-0  13584-3 0  9997,2 53604  53.2151 212.4378 0001188  88.1434 271.9694 15.08845840 51300,6917.863,95.437,540.549,538.906,0.0
53604.0,STARLINK-4690,PAYLOAD,2023-07-28 00:37:22,15.08835461,0.0001211,53.2151,209.1678,88.5887,271.5244,-5.2273e-05,-1.12e-05,0.0,0 STARLINK-4690,1 53604U 22104S   23209.02595726 -.00001120  00000-0 -52273-4 0  9998,2 53604  53.2151 209.1678 0001211  88.5887 271.5244 15.08835461 50729,6917.894,95.438,540.597,538.922,0.0
53604.0,STARLINK-4690,PAYLOAD,2023-07-28 08:34:18,15.0883421,0.0001146,53.2161,207.6808,88.344,271.7683,-2.7859e-05,-7.31e-06,0.0,0 STARLINK-4690,1 53604U 22104S   23209.35716163 -.00000731  00000-0 -27859-4 0  9993,2 53604  53.2161 207.6808 0001146  88.3440 271.7683 15.08834210 51460,6917.898,95.438,540.556,538.97,0.0
53604.0,STARLINK-4690,PAYLOAD,2023-07-29 06:49:42,15.08840242,0.0001097,53.2159,203.5171,86.9903,273.1215,4.6235e-05,4.48e-06,0.0,0 STARLINK-4690,1 53604U 22104S   23210.28451683  .00000448  00000-0  46235-4 0  9992,2 53604  53.2159 203.5171 0001097  86.9903 273.1215 15.08840242 50916,6917.88,95.438,540.504,538.986,0.0
53604.0,STARLINK-4690,PAYLOAD,2023-07-30 00:18:57,15.08832438,0.0001116,53.2163,200.2461,94.3712,265.7408,7.3415e-05,8.81e-06,0.0,0 STARLINK-4690,1 53604U 22104S   23211.01316321  .00000881  00000-0  73415-4 0  9994,2 53604  53.2163 200.2461 0001116  94.3712 265.7408 15.08832438 51022,6917.904,95.438,540.541,538.996,0.0
53604.0,STARLINK-4690,PAYLOAD,2023-07-31 00:09:44,15.08841476,0.0001162,53.2168,195.7864,96.082,264.0304,6.4112e-05,7.33e-06,0.0,0 STARLINK-4690,1 53604U 22104S   23212.00676051  .00000733  00000-0  64112-4 0  9993,2 53604  53.2168 195.7864 0001162  96.0820 264.0304 15.08841476 51177,6917.876,95.437,540.545,538.937,0.0
53604.0,STARLINK-4690,PAYLOAD,2023-07-31 16:03:35,15.08838309,0.0001129,53.2167,192.8115,83.4102,276.7019,4.8527e-05,4.85e-06,0.0,0 STARLINK-4690,1 53604U 22104S   23212.66916314  .00000485  00000-0  48527-4 0  9990,2 53604  53.2167 192.8115 0001129  83.4102 276.7019 15.08838309 51274,6917.886,95.438,540.532,538.97,0.0
53604.0,STARLINK-4690,PAYLOAD,2023-08-01 22:15:55,15.08839574,0.0001287,53.2168,187.1613,98.5798,261.534,2.2375e-06,-2.52e-06,0.0,0 STARLINK-4690,1 53604U 22104S   23213.92772590 -.00000252  00000-0  22375-5 0  9993,2 53604  53.2168 187.1613 0001287  98.5798 261.5340 15.08839574 51463,6917.882,95.438,540.637,538.856,0.0
53604.0,STARLINK-4690,PAYLOAD,2023-08-03 02:52:51,15.08839163,0.0001125,53.2159,181.8097,84.9993,275.1128,0.00010022,1.308e-05,0.0,0 STARLINK-4690,1 53604U 22104S   23215.12004381  .00001308  00000-0  10022-3 0  9999,2 53604  53.2159 181.8097 0001125  84.9993 275.1128 15.08839163 51646,6917.883,95.438,540.526,538.97,0.0
53604.0,STARLINK-4690,PAYLOAD,2023-08-04 02:43:39,15.08833325,0.0001392,53.2171,177.3512,75.0567,285.0579,-1.6655e-05,-5.53e-06,0.0,0 STARLINK-4690,1 53604U 22104S   23216.11365447 -.00000553  00000-0 -16655-4 0  9994,2 53604  53.2171 177.3512 0001392  75.0567 285.0579 15.08833325 51796,6917.901,95.438,540.729,538.803,0.0
53604.0,STARLINK-4690,PAYLOAD,2023-08-05 02:34:26,15.08843383,0.0001192,53.2163,172.8893,85.021,275.0918,6.6124e-05,7.65e-06,0.0,0 STARLINK-4690,1 53604U 22104S   23217.10724710  .00000765  00000-0  66124-4 0  9995,2 53604  53.2163 172.8893 0001192  85.0210 275.0918 15.08843383 51941,6917.87,95.437,540.56,538.91,0.0
53604.0,STARLINK-4690,PAYLOAD,2023-08-06 05:35:59,15.08845525,0.0001241,53.2174,167.8356,87.9736,272.1398,0.00015568,2.191e-05,0.0,0 STARLINK-4690,1 53604U 22104S   23218.23332305  .00002191  00000-0  15568-3 0  9995,2 53604  53.2174 167.8356 0001241  87.9736 272.1398 15.08845525 52110,6917.864,95.437,540.587,538.87,0.0
53604.0,STARLINK-4690,PAYLOAD,2023-08-06 13:32:55,15.08836716,0.0001624,53.2172,166.3482,78.4046,281.7128,5.376e-05,5.68e-06,0.0,0 STARLINK-4690,1 53604U 22104S   23218.56453300  .00000568  00000-0  53760-4 0  9993,2 53604  53.2172 166.3482 0001624  78.4046 281.7128 15.08836716 52160,6917.89,95.438,540.879,538.632,0.0
53604.0,STARLINK-4690,PAYLOAD,2023-08-07 02:16:01,15.08829687,0.0001307,53.2178,163.9709,89.7063,270.4078,-0.00011974,-2.192e-05,0.0,0 STARLINK-4690,1 53604U 22104S   23219.09446443 -.00002192  00000-0 -11974-3 0  9999,2 53604  53.2178 163.9709 0001307  89.7063 270.4078 15.08829687 52240,6917.912,95.438,540.681,538.873,0.0
53604.0,STARLINK-4690,PAYLOAD,2023-08-08 05:17:32,15.08856455,0.000127,53.2177,158.9122,84.418,275.6957,0.00014572,2.033e-05,0.0,0 STARLINK-4690,1 53604U 22104S   23220.22052022  .00002033  00000-0  14572-3 0  9991,2 53604  53.2177 158.9122 0001270  84.4180 275.6957 15.08856455 52418,6917.83,95.437,540.574,538.817,0.0
